{"spkid": "20893065", "covariance": {"data": [["2.729320193976571E-14", "-1.992623122693121E-14", "2.648146485332416E-12", "-5.905329654645543E-14", "1.495142208909521E-13", "6.619696871736817E-13", "-2.388321492533061E-22"], ["-1.992623122693121E-14", "1.454782421199637E-14", "-1.933317102525197E-12", "4.333604704998636E-14", "-1.091616168666608E-13", "-4.828330885957653E-13", "1.740946374576266E-22"], ["2.648146485332416E-12", "-1.933317102525197E-12", "2.628634152849342E-10", "-1.799619684945449E-12", "1.554401888952235E-11", "7.249972956469069E-11", "-2.326419273195859E-20"], ["-5.905329654645543E-14", "4.333604704998636E-14", "-1.799619684945449E-12", "6.61614872157292E-12", "-3.61151349822724E-12", "-1.181175536925557E-11", "-1.221507364563296E-21"], ["1.495142208909521E-13", "-1.091616168666608E-13", "1.554401888952235E-11", "-3.61151349822724E-12", "7.698204819253652E-12", "1.204309144944244E-11", "4.148743701298933E-21"], ["6.619696871736817E-13", "-4.828330885957653E-13", "7.249972956469069E-11", "-1.181175536925557E-11", "1.204309144944244E-11", "2.017179233818838E-10", "-2.200711568086353E-20"], ["-2.388321492533061E-22", "1.740946374576266E-22", "-2.326419273195859E-20", "-1.221507364563296E-21", "4.148743701298933E-21", "-2.200711568086353E-20", "2.055430022694163E-29"]], "elements": [{"label": "e", "name": "e", "sigma": 1.65206543271644e-07, "units": null, "title": "eccentricity", "value": ".6222088807938828"}, {"units": "au", "title": "perihelion distance", "value": ".2756855357497738", "name": "q", "sigma": 1.20614361549512e-07, "label": "q"}, {"label": "tp", "value": "2458500.816686634198", "title": "time of perihelion passage", "units": "TDB", "sigma": 1.62130631061787e-05, "name": "tp"}, {"name": "om", "sigma": 2.57218753623699e-06, "title": "longitude of the ascending node", "value": "316.4412381804684", "units": "deg", "label": "node"}, {"name": "w", "sigma": 2.77456389712936e-06, "units": "deg", "value": "23.52620978318783", "title": "argument of perihelion", "label": "peri"}, {"label": "i", "sigma": 1.42027435160213e-05, "name": "i", "units": "deg", "title": "inclination", "value": "21.51860920108935"}], "labels": ["e", "q", "tp", "node", "peri", "i", "A2"], "epoch": "2458592.5"}, "elements": [{"sigma": "1.6511E-7", "name": "e", "units": null, "value": ".6223170858057928", "title": "eccentricity", "label": "e"}, {"units": "au", "value": ".7296196595067793", "title": "semi-major axis", "name": "a", "sigma": "2.4003E-9", "label": "a"}, {"sigma": "1.2081E-7", "name": "q", "units": "au", "title": "perihelion distance", "value": ".2755648792559056", "label": "q"}, {"label": "i", "value": "21.52961982669297", "title": "inclination; angle with respect to x-y ecliptic plane", "units": "deg", "name": "i", "sigma": "1.4203E-5"}, {"label": "node", "name": "om", "sigma": "2.5655E-6", "units": "deg", "title": "longitude of the ascending node", "value": "316.415100953713"}, {"name": "w", "sigma": "2.762E-6", "title": "argument of perihelion", "value": "23.51980161187023", "units": "deg", "label": "peri"}, {"label": "M", "sigma": "2.3508E-5", "name": "ma", "title": "mean anomaly", "value": "309.0242703193729", "units": "deg"}, {"title": "time of perihelion passage", "value": "2461232.733255333801", "units": "TDB", "sigma": "1.4875E-5", "name": "tp", "label": "tp"}, {"units": "d", "title": "sidereal orbital period", "value": "227.6371911274188", "name": "per", "sigma": "1.1233E-6", "label": "period"}, {"sigma": "7.8042E-9", "name": "n", "value": "1.581463899712643", "title": "mean motion", "units": "deg/d", "label": "n"}, {"name": "ad", "sigma": "3.8941E-9", "title": "aphelion distance", "value": "1.183674439757653", "units": "au", "label": "Q"}], "epoch": "2461200.5"}